#dP2024  4 28  6  0  0.00000000      96 __u+U IGS20 EXT  IAC
## 2312  21600.00000000   900.00000000 60428 0.2500000000000
+  120   C06C07C08C09C10C11C12C13C14C16C19C20C21C22C23C24C25
+        C26C27C28C29C30C32C33C34C35C36C37C38C39C40C41C42C43
+        C44C45C46E02E03E04E05E07E08E09E10E11E12E13E14E15E18
+        E19E21E24E25E26E27E30E31E33E34E36G01G02G03G04G05G06
+        G07G08G09G10G11G12G13G14G15G16G17G18G19G20G21G22G23
+        G24G25G26G27G28G29G30G31G32J02J03J04R01R02R03R04R05
+        R07R08R09R11R12R13R14R15R16R17R18R19R20R21R22R24R25
+        R26  0  0  0  0  0  0  0  0  0  0  0  0  0  0  0  0
++        11  9  9 10  9  8  8  9  8 11  8  8  9  9 10  8  8
++         8  9  9  9  8  7  8  7  8  9  8 10 10 10  8  8  9
++         9  9  9  8  7  7  7  7  8  8  7  8 10  8  8  8  8
++         7  7  8  9  8  7  7  8  8  8  8  0  8  8  8  7  8
++         7  7  8  7  7  8  7  9  7  8  7  8  8  7  7  7  8
++         8  8  8  7  8  7  7  7  8  9 10  9  8  7  7  7  8
++         8  7  7  9  9 10  7  7  6  8  8  9  8  8  8  8  7
++         8  0  0  0  0  0  0  0  0  0  0  0  0  0  0  0  0
%c M  cc GPS ccc cccc cccc cccc cccc ccccc ccccc ccccc ccccc
%c cc cc ccc ccc cccc cccc cccc cccc ccccc ccccc ccccc ccccc
%f  0.0000000  0.000000000  0.00000000000  0.000000000000000
%f  0.0000000  0.000000000  0.00000000000  0.000000000000000
%i    0    0    0    0      0      0      0      0         0
%i    0    0    0    0      0      0      0      0         0
/* IAC                                ULTRA-RAPID PREDICTION
/* S/V CLOCKS ARE ALIGNED TO GNSS TIME                      
/* G:C1WC2W R:C1PC2P E:C1XC5X C:C2IC6I J:C1CC2S             
/* PCV:IGS20_2290 OL/AL:FES2004  NONE     YN ORB:CoN CLK:CoN
*  2024 04 29  1 30  0.00000000
PC06 -12070.010816  40090.277127   3379.601427    382.193672
PC07  -4039.160006  30318.240761  29181.875030   -777.336801
PC08 -17775.319932  21605.753190 -31632.163098    -66.849293
PC09  -8475.454703  39709.518889  10532.971346   -828.027672
PC10   4736.421910  33629.874537  25641.602223     68.702783
PC11    858.186809  27816.202964  -2058.445294    536.046599
PC12 -10406.168671  20837.599980  15401.039005   -238.684046
PC13  -9419.268715  23201.167915 -33826.069934    433.390620
PC14   7320.748402  18894.628062 -19200.636677    756.608131
PC16 -15177.936952  39098.503062  -1404.397349   -488.026462
PC19 -16279.573359 -18776.781598  12688.115592   -913.378877
PC20   1176.699129 -16609.629690  22400.722441   -409.217196
PC21 -19591.844867   4110.864919 -19410.027829   -964.587986
PC22 -25441.003939 -10283.164766  -4972.474286    -22.578903
PC23  21275.517811   2272.543607  17918.456501   -776.840876
PC24 -13722.073062  19972.764721  13845.847368    932.487496
PC25   5917.880007  15422.611707  22482.247950    386.676183
PC26 -24412.660134  13307.566540  -2600.874800   -283.916004
PC27  14198.841928 -12678.896357 -20432.957118    305.591370
PC28  15656.863721   6324.962875 -22216.273040    233.941738
PC29  -8213.058843 -24775.783175   9867.131221    274.465116
PC30   4579.942667 -26245.129725  -8356.547762    -65.578021
PC32  19668.106350  -4200.523180  19374.810023   -611.723530
PC33  16383.573696  18693.299140 -12704.285796   -968.589452
PC34  -3537.945861  26806.107724   6841.344428    422.430239
PC35 -15928.390359  -6088.836822  22078.304055    375.728496
PC36  -5435.154559 -15614.872235 -22458.867962     65.888569
PC37  24730.164712 -12591.141239   2832.322143   -966.351442
PC38 -23948.574621  23056.637718 -25972.630431    151.912185
PC39 -16018.651904  38185.997408  -7226.060078     -8.163081
PC40  -7046.400420  25602.138946  32818.653182    -67.689541
PC41  25447.312630  10711.865451   4198.478000   -935.501519
PC42  -2882.019070  15945.646859 -22678.027331   -442.669723
PC43   7710.068602  25244.430466  -9036.902804     69.739104
PC44 -13867.145642  13022.119872  20387.749595    457.795963
PC45 -21195.002900  -2296.612134 -18019.346800    -82.672299
PC46  13076.371061 -19909.705684 -14513.579650   -143.888054
PE02 -26959.624781   5900.847705  10713.137428    123.245387
PE03 -15795.846525   6318.272760 -24218.114659   -110.349120
PE04   1892.492111 -23554.301998  17837.006586   -384.692293
PE05 -20166.940276 -14290.585235 -16271.475008   4742.913333
PE07  12557.718576  26766.074666  -1573.010397   -117.194337
PE08  -2420.152287  23049.937715 -18414.155535   -262.454871
PE09 -12478.518367 -26776.608200   1711.789716   -424.125068
PE10   5883.227211 -25510.269633  13805.287895   -620.774175
PE11  -2884.988331 -20581.780276  21070.473770   2961.640495
PE12  12891.787416 -26135.358676   5256.435405  -1015.231849
PE13   2371.205437  20920.892587 -20800.410568    -21.273948
PE14   4708.766676 -20900.157188 -15740.726352     20.405180
PE15 -13222.074858  26049.115727  -4730.476373    -99.832145
PE18   8865.062251  29156.036598   4992.296592     52.053027
PE19  16700.171738  -3953.544035  24132.240147   -157.656207
PE21  27945.899309   6495.712146   7278.190629   -591.734560
PE24 -12247.234077 -15837.174852 -21827.075138   -733.585624
PE25 -27784.043167  -6752.185800  -7661.767864      3.890584
PE26  16745.413660   3136.268594 -24206.562887    439.389410
PE27  12606.636212  15668.949568  21714.993112   -336.247081
PE30 -10187.126417  15463.765766  23081.502362   -246.907165
PE31   9965.576432 -15490.192952 -23168.277262    -22.085099
PE33  20865.312522 -15386.526882 -14289.287184     11.031378
PE34 -20792.533259  15869.367114  13849.276626   -108.314077
PE36 -16288.143379  -3688.666826  24434.394661   -219.889519
PG01 -22773.544809  -8761.204215 -11262.404016    280.090318
PG02 -14804.039681  21256.854700   5618.370647   -445.306079
PG03 -13840.281770  12393.068739 -19084.455955    336.170160
PG04  -5786.573711  17613.196448 -18951.592632    349.473506
PG05  24809.652563  -5838.643112   7459.074714   -170.836237
PG06  11509.495968   8991.190113 -22116.846194    299.213897
PG07  -1923.912333  22563.097871  13996.240017   -117.633498
PG08 -12742.159127   8528.352438  21568.190468    149.505177
PG09   5793.755992  23889.496383 -10068.530370    177.337436
PG10 -18761.823945 -10846.875239  15779.529038    -15.014477
PG11  18251.714101  -3843.602785 -18867.631735   -649.002734
PG12  16008.114996 -11304.922353 -18185.945140   -500.777451
PG13  15908.797903   1274.621242  21066.431969    646.478252
PG14  15036.025169  13290.622199  17530.116591    387.969517
PG15  11701.899172 -10251.018523  21029.103861    153.445396
PG16 -26466.013321    -47.254567   3907.030817   -304.986682
PG17  12759.260686  23030.267526  -2347.911633    709.739933
PG18   2305.840006 -22091.150119  14428.479399   -602.385162
PG19  16305.198268  17736.172340 -11783.270726    474.781449
PG20  26137.907056  -1306.980390  -3977.004250    378.466791
PG21 -16582.355929  17411.711667  10505.923142    124.641381
PG22  20975.232796  10874.471341  12256.912793     -6.285335
PG23  -6491.429211 -14347.287143  21443.584583    212.507091
PG24  15010.998760 -20579.759327   6307.786469   -464.500611
PG25   5214.120625 -15269.448849 -21399.775657    494.738237
PG26 -24755.038380  -5101.509818  -8891.629719    160.277162
PG27 -17721.139432  -4240.357223  19183.132535    -21.323171
PG28 -10636.142961 -11602.169718 -21407.071834   -222.301975
PG29  -1749.605629 -23574.277003 -12049.938543   -600.315780
PG30   7219.050462  16260.216767  19786.216122   -398.283118
PG31 -16886.464817   -850.270367 -20783.347811   -227.947648
PG32 -15731.159631 -20938.053195  -4817.378552   -618.418978
PJ02 -28631.510646  23266.697064  25520.735802     -4.643620
PJ03 -31214.478170  26355.859135  15487.774221      0.058164
PJ04 -25069.815847  20402.179974 -21983.962706     50.388159
PR01  19218.336164   5278.349029  15938.920836     83.820203
PR02   7553.507312  -7748.274389  23148.491170    -22.823410
PR03  -8224.087122 -17117.827253  17111.696990     99.153889
PR04 -18933.526610 -16993.456712   1956.140104    234.086124
PR05 -19618.153209  -7845.336866 -14288.824271    130.699027
PR07   8930.440426  17296.975092 -16411.072444     81.253150
PR08  19196.307862  16698.595649  -1531.542922    -75.247433
PR09 -19286.331820  13345.160747   9946.446533    183.649356
PR11  11992.470262   6313.706496  21623.481479     26.448457
PR12  23723.892117  -5080.311147   7881.215697     39.532239
PR13  21010.271724 -12300.524550  -7622.118225    -46.867600
PR14   4426.812666 -12964.800499 -21509.972612     26.439559
PR15 -13396.230336  -5643.393811 -20939.957010     80.209682
PR16 -23616.797216   5117.801892  -8102.729656     25.158358
PR17   2026.767982 -24949.576528   4814.665819     82.164604
PR18  -5605.999734 -16414.943629  18735.089967    139.492862
PR19 -10291.912604  -1577.135551  23280.230332   -274.755742
PR20 -10248.552666  19122.796288  13380.082610   -112.016341
PR21  -2292.523922  24969.582427  -4750.389170    -96.593679
PR22   6012.429549  15612.348543 -19226.950627    114.614105
PR24   9524.634025 -19916.962741 -12757.220234    -53.751066
PR25  -2854.803310  24856.414563  -5013.406699    -32.302175
PR26  18848.910871  16973.963199  -2801.668133    -22.448300
EOF
